[{"OBJECT_NAME":"OBJECT V","OBJECT_ID":"2025-155V","EPOCH":"2026-03-09T20:35:20.067360","MEAN_MOTION":15.27583301,"ECCENTRICITY":0.00080353,"INCLINATION":97.4485,"RA_OF_ASC_NODE":37.249,"ARG_OF_PERICENTER":152.8264,"MEAN_ANOMALY":207.3397,"EPHEMERIS_TYPE":0,"CLASSIFICATION_TYPE":"U","NORAD_CAT_ID":64895,"ELEMENT_SET_NO":999,"REV_AT_EPOCH":6557,"BSTAR":0.00051002361,"MEAN_MOTION_DOT":0.00013705,"MEAN_MOTION_DDOT":0},{"OBJECT_NAME":"STARLINK-36451","OBJECT_ID":"2026-003F","EPOCH":"2026-03-08T12:26:34.874880","MEAN_MOTION":15.27586134,"ECCENTRICITY":0.00014946,"INCLINATION":43.001,"RA_OF_ASC_NODE":233.7783,"ARG_OF_PERICENTER":268.3388,"MEAN_ANOMALY":91.7293,"EPHEMERIS_TYPE":0,"CLASSIFICATION_TYPE":"U","NORAD_CAT_ID":67339,"ELEMENT_SET_NO":999,"REV_AT_EPOCH":864,"BSTAR":0.001116091,"MEAN_MOTION_DOT":0.00030584,"MEAN_MOTION_DDOT":0}]
